[{"OBJECT_NAME":"BRO-15","OBJECT_ID":"2024-149CP","EPOCH":"2026-03-09T18:52:33.918816","MEAN_MOTION":14.95892184,"ECCENTRICITY":0.00093198,"INCLINATION":97.6864,"RA_OF_ASC_NODE":146.0377,"ARG_OF_PERICENTER":65.4416,"MEAN_ANOMALY":294.7775,"EPHEMERIS_TYPE":0,"CLASSIFICATION_TYPE":"U","NORAD_CAT_ID":60553,"ELEMENT_SET_NO":999,"REV_AT_EPOCH":8514,"BSTAR":7.8021491e-5,"MEAN_MOTION_DOT":8.16e-6,"MEAN_MOTION_DDOT":0},{"OBJECT_NAME":"STARLINK-32907","OBJECT_ID":"2025-037U","EPOCH":"2026-03-09T23:27:38.313792","MEAN_MOTION":14.98328846,"ECCENTRICITY":0.00025483,"INCLINATION":70.0033,"RA_OF_ASC_NODE":353.7855,"ARG_OF_PERICENTER":260.1337,"MEAN_ANOMALY":99.9535,"EPHEMERIS_TYPE":0,"CLASSIFICATION_TYPE":"U","NORAD_CAT_ID":63095,"ELEMENT_SET_NO":999,"REV_AT_EPOCH":5859,"BSTAR":0.00026248806,"MEAN_MOTION_DOT":3.04e-5,"MEAN_MOTION_DDOT":0}]
